{
  "type": "FeatureCollection",
  "features": [
    {
      "type": "Feature",
      "properties": {
        "norad_id": 66921,
        "name": "HULIANWANG DIGUI 14G",
        "group": "last-30-days",
        "lat": 46.38554494540923,
        "lon": -110.18868652316272,
        "alt_km": 872.0406031740622,
        "timestamp": "2025-12-09T05:43:19.511071+00:00",
        "meta_object_name": "HULIANWANG DIGUI 14G",
        "meta_object_id": "2025-285G",
        "meta_epoch": "2025-12-08T20:40:32.066400",
        "meta_mean_motion": 14.05882293,
        "meta_eccentricity": 0.0006959,
        "meta_inclination": 50.0114,
        "meta_ra_of_asc_node": 133.1024,
        "meta_arg_of_pericenter": 282.0248,
        "meta_mean_anomaly": 77.9877,
        "meta_ephemeris_type": 0,
        "meta_classification_type": "U",
        "meta_norad_cat_id": 66921,
        "meta_element_set_no": 999,
        "meta_rev_at_epoch": 36,
        "meta_bstar": 1.4289e-05,
        "meta_mean_motion_dot": -1.29e-06,
        "meta_mean_motion_ddot": 0,
        "tle_line1": "1 66921U 25285G   25342.86148225 -.00000129  00000+0  14289-4 0  9998",
        "tle_line2": "2 66921  50.0114 133.1024 0006959 282.0248  77.9877 14.05882293   362"
      },
      "geometry": {
        "type": "Point",
        "coordinates": [
          -110.18868652316272,
          46.38554494540923
        ]
      }
    },
    {
      "type": "Feature",
      "properties": {
        "norad_id": 66922,
        "name": "HULIANWANG DIGUI 14H",
        "group": "last-30-days",
        "lat": 45.94519862063838,
        "lon": -108.61994212345554,
        "alt_km": 871.6975832176395,
        "timestamp": "2025-12-09T05:43:19.511083+00:00",
        "meta_object_name": "HULIANWANG DIGUI 14H",
        "meta_object_id": "2025-285H",
        "meta_epoch": "2025-12-08T20:40:14.885760",
        "meta_mean_motion": 14.05997561,
        "meta_eccentricity": 0.0006912,
        "meta_inclination": 50.0077,
        "meta_ra_of_asc_node": 133.0983,
        "meta_arg_of_pericenter": 288.2879,
        "meta_mean_anomaly": 71.7274,
        "meta_ephemeris_type": 0,
        "meta_classification_type": "U",
        "meta_norad_cat_id": 66922,
        "meta_element_set_no": 999,
        "meta_rev_at_epoch": 36,
        "meta_bstar": -8.68e-06,
        "meta_mean_motion_dot": -1.67e-06,
        "meta_mean_motion_ddot": 0,
        "tle_line1": "1 66922U 25285H   25342.86128340 -.00000167  00000+0 -86800-5 0  9997",
        "tle_line2": "2 66922  50.0077 133.0983 0006912 288.2879  71.7274 14.05997561   369"
      },
      "geometry": {
        "type": "Point",
        "coordinates": [
          -108.61994212345554,
          45.94519862063838
        ]
      }
    },
    {
      "type": "Feature",
      "properties": {
        "norad_id": 66923,
        "name": "HULIANWANG DIGUI 14J",
        "group": "last-30-days",
        "lat": 44.84407037389407,
        "lon": -105.04921325372035,
        "alt_km": 868.9343737122908,
        "timestamp": "2025-12-09T05:43:19.511095+00:00",
        "meta_object_name": "HULIANWANG DIGUI 14J",
        "meta_object_id": "2025-285J",
        "meta_epoch": "2025-12-07T22:29:36.786048",
        "meta_mean_motion": 14.06515715,
        "meta_eccentricity": 0.00053876,
        "meta_inclination": 50.0075,
        "meta_ra_of_asc_node": 136.8754,
        "meta_arg_of_pericenter": 280.8946,
        "meta_mean_anomaly": 79.1354,
        "meta_ephemeris_type": 0,
        "meta_classification_type": "U",
        "meta_norad_cat_id": 66923,
        "meta_element_set_no": 999,
        "meta_rev_at_epoch": 23,
        "meta_bstar": -4.7305e-07,
        "meta_mean_motion_dot": -1.53e-06,
        "meta_mean_motion_ddot": 0,
        "tle_line1": "1 66923U 25285J   25341.93723132 -.00000153  00000+0 -47305-6 0  9998",
        "tle_line2": "2 66923  50.0075 136.8754 0005387 280.8946  79.1354 14.06515715   238"
      },
      "geometry": {
        "type": "Point",
        "coordinates": [
          -105.04921325372035,
          44.84407037389407
        ]
      }
    },
    {
      "type": "Feature",
      "properties": {
        "norad_id": 66924,
        "name": "CZ-8A R/B",
        "group": "last-30-days",
        "lat": 0.7024520675699178,
        "lon": 131.64775125710707,
        "alt_km": 794.5209999197386,
        "timestamp": "2025-12-09T05:43:19.511106+00:00",
        "meta_object_name": "CZ-8A R/B",
        "meta_object_id": "2025-285K",
        "meta_epoch": "2025-12-08T19:39:29.828736",
        "meta_mean_motion": 14.3049934,
        "meta_eccentricity": 0.0119337,
        "meta_inclination": 50.0061,
        "meta_ra_of_asc_node": 132.8436,
        "meta_arg_of_pericenter": 92.9076,
        "meta_mean_anomaly": 268.5504,
        "meta_ephemeris_type": 0,
        "meta_classification_type": "U",
        "meta_norad_cat_id": 66924,
        "meta_element_set_no": 999,
        "meta_rev_at_epoch": 36,
        "meta_bstar": 4.1549e-05,
        "meta_mean_motion_dot": -5e-07,
        "meta_mean_motion_ddot": 0,
        "tle_line1": "1 66924U 25285K   25342.81909524 -.00000050  00000+0  41549-4 0  9995",
        "tle_line2": "2 66924  50.0061 132.8436 0119337  92.9076 268.5504 14.30499340   361"
      },
      "geometry": {
        "type": "Point",
        "coordinates": [
          131.64775125710707,
          0.7024520675699178
        ]
      }
    }
  ]
}